[
    {
        "CCSDS_OMM_VERS": "3.0",
        "COMMENT": "GENERATED VIA SPACE-TRACK.ORG API",
        "CREATION_DATE": "2025-03-02T18:08:23",
        "ORIGINATOR": "18 SPCS",
        "OBJECT_NAME": "NAVSTAR 66 (USA 232)",
        "OBJECT_ID": "2011-036A",
        "CENTER_NAME": "EARTH",
        "REF_FRAME": "TEME",
        "TIME_SYSTEM": "UTC",
        "MEAN_ELEMENT_THEORY": "SGP4",
        "EPOCH": "2025-03-02T07:58:30.006336",
        "MEAN_MOTION": "2.00567282",
        "ECCENTRICITY": "0.01329300",
        "INCLINATION": "56.7318",
        "RA_OF_ASC_NODE": "350.3499",
        "ARG_OF_PERICENTER": "58.4591",
        "MEAN_ANOMALY": "31.0700",
        "EPHEMERIS_TYPE": "0",
        "CLASSIFICATION_TYPE": "U",
        "NORAD_CAT_ID": "37753",
        "ELEMENT_SET_NO": "999",
        "REV_AT_EPOCH": "9981",
        "BSTAR": "0.00000000000000",
        "MEAN_MOTION_DOT": "-0.00000081",
        "MEAN_MOTION_DDOT": "0.0000000000000",
        "SEMIMAJOR_AXIS": "26560.023",
        "PERIOD": "717.964",
        "APOAPSIS": "20534.950",
        "PERIAPSIS": "19828.826",
        "OBJECT_TYPE": "PAYLOAD",
        "RCS_SIZE": "LARGE",
        "COUNTRY_CODE": "US",
        "LAUNCH_DATE": "2011-07-16",
        "SITE": "AFETR",
        "DECAY_DATE": null,
        "FILE": "4657142",
        "GP_ID": "282083330",
        "TLE_LINE0": "0 NAVSTAR 66 (USA 232)",
        "TLE_LINE1": "1 37753U 11036A   25061.33229174 -.00000081  00000-0  00000-0 0  9991",
        "TLE_LINE2": "2 37753  56.7318 350.3499 0132930  58.4591  31.0700  2.00567282 99810"
    }
]